STARLINK-5523           
1 56470U 23064Y   26068.54301677 -.00000663  00000+0 -47768-4 0  9994
2 56470  70.0004 124.9791 0002926 262.4662  97.6164 14.98324703155718
HAWK-8C                 
1 59449U 24066H   26068.47383543  .00002400  00000+0  21518-3 0  9993
2 59449  45.6068  72.8656 0003935 260.2975  99.7462 14.98770227104860
